[{"OBJECT_NAME":"STARLINK-11596 [DTC]","OBJECT_ID":"2025-124E","EPOCH":"2026-03-09T16:00:03.000096","MEAN_MOTION":15.70915372,"ECCENTRICITY":0.00018354,"INCLINATION":43.0006,"RA_OF_ASC_NODE":29.5743,"ARG_OF_PERICENTER":263.6849,"MEAN_ANOMALY":264.5958,"EPHEMERIS_TYPE":0,"CLASSIFICATION_TYPE":"U","NORAD_CAT_ID":64321,"ELEMENT_SET_NO":999,"REV_AT_EPOCH":599,"BSTAR":-0.0011382703,"MEAN_MOTION_DOT":-0.00144462,"MEAN_MOTION_DDOT":0},{"OBJECT_NAME":"CZ-2F DEB","OBJECT_ID":"2026-024D","EPOCH":"2026-03-09T22:29:00.721824","MEAN_MOTION":15.26264439,"ECCENTRICITY":0.02293172,"INCLINATION":50.3196,"RA_OF_ASC_NODE":17.4686,"ARG_OF_PERICENTER":280.8979,"MEAN_ANOMALY":76.6257,"EPHEMERIS_TYPE":0,"CLASSIFICATION_TYPE":"U","NORAD_CAT_ID":67692,"ELEMENT_SET_NO":999,"REV_AT_EPOCH":466,"BSTAR":0.0047386771,"MEAN_MOTION_DOT":0.00280979,"MEAN_MOTION_DDOT":0}]
